Site_ID,Site_Name,Latitude,Longitude,Town,State,Watershed_Name,Group,,,
WW001,Alton Pond,41.438171,-71.721642,Hopkinton,RI,Lower Wood River,S,,,
WW002,Barber Pond,41.504129,-71.564271,South Kingstown,RI,Usquepaug River-Pawcatuck River,D,,,
WW003,Belleville Pond-Lower,41.561453,-71.475119,North Kingstown,RI,Lower West Passage,S,,,
WW004,Belleville Pond-Upper,41.563136,-71.481419,North Kingstown,RI,Lower West Passage,S,,,
WW005,Blackamore Pond,41.774109,-71.44689,Cranston,RI,Pocassett River,S,,,
WW006,Boone Lake,41.581428,-71.675153,Exeter,RI,Upper Wood River,D,,,
WW007,Brickyard Pond,41.73385,-71.319964,Barrington,RI,Seekonk River-Providence River,D,,,
WW008,Carr Pond (North Kingstown),41.523592,-71.451522,North Kingstown,RI,Pettaquamscutt River-Frontal Atlantic Ocean,D,,,
WW009,Carr Pond (West Greenwich),41.634417,-71.556514,West Greenwich,RI,Big River,D,,,
WW010,Clark Pond,41.772414,-71.776758,Foster,RI,Upper Moosup River,S,,,
WW011,Coomer's Lake (Reservoir),41.880867,-71.624909,Glocester,RI,Moswansicut Pond-Huntinghouse Brook,S,,,
WW012,Deep Pond (Charlestown),41.391067,-71.66225,Charlestown,RI,Ninigret Pond-Frontal Block Island Sound,D,,,
WW013,Echo Lake (Pascoag south),41.927994,-71.711037,Glocester,RI,Clear River,S,,,
WW014,Fenner Pond,41.771401,-71.419901,Cranston,RI,Pawtuxet River,S,,,
WW015,Flat River Reservoir (Johnson Pond),41.685454,-71.605113,Coventry,RI,Headwaters South Branch Pawtuxet River,D,,,
WW016,Georgiaville Pond,41.892783,-71.511331,Smithfield,RI,Woonasquatucket River,D,,,
WW017,Hundred Acre Pond,41.49995,-71.542667,South Kingstown,RI,Chipuxet River-Pawcatuck River,D,,,
WW018,Indian Lake,41.480172,-71.470544,South Kingstown,RI,Saugatucket River,S,,,
WW019,Keech Pond,41.879128,-71.688375,Glocester,RI,Chepachet River,S,,,
WW020,"Sandy Pond (Little Pond, south of airport)",41.705881,-71.406332,Warwick,RI,Upper Narragansett Bay,D,,,
WW021,Locustville Pond,41.510217,-71.717213,Hopkinton,RI,Lower Wood River,S,,,
WW022,Long Pond (Hopkinton),41.506486,-71.774108,Hopkinton,RI,Lower Wood River,D,,,
WW023,Long Pond (South Kingstown),41.41035,-71.553686,South Kingstown,RI,Point Judith Pond-Frontal Block Island Sound,D,,,
WW024,Lower Sprague Reservoir,41.887806,-71.548376,Smithfield,RI,Woonasquatucket River,S,,,
WW025,Mashapaug Pond,41.790983,-71.432942,Providence,RI,Pawtuxet River,S,,,
WW026,Meadowbrook Pond (Sandy Pond),41.439906,-71.691067,Richmond,RI,Tomaquag Brook-Pawcatuck River,S,,,
WW027,Mishnock Lake,41.654058,-71.590844,West Greenwich,RI,South Branch Pawtuxet River,D,,,
WW028,Oak Swamp Reservoir,41.827322,-71.541019,Johnston,RI,Pocassett River,S,,,
WW029,Pascoag Reservoir (Echo Lake),41.944583,-71.706023,Burrillville,RI,Clear River,D,,,
WW030,Pasquiset Pond,41.426961,-71.631367,Charlestown,RI,Usquepaug River-Pawcatuck River,D,,,
WW031,Pawcatuck River @ Bradford. (Westerly/Hopkinton),41.406269,-71.747733,Hopkinton,RI,Tomaquag Brook-Pawcatuck River,S,,,
WW032,Pt Judith Pond - East Pond,41.387539,-71.500766,Narragansett,RI,Point Judith Pond-Frontal Block Island Sound,S,,,
WW033,Prince's Pond (Tiffany Pond),41.743678,-71.318425,Barrington,RI,Seekonk River-Providence River,D,,,
WW034,Queen River @ Usquepaugh (Glen Rock Reservoir),41.507914,-71.606189,South Kingstown,RI,Usquepaug River,S,,,
WW035,Quidnick Reservoir,41.679061,-71.679369,Coventry,RI,Headwaters South Branch Pawtuxet River,D,,,
WW036,Randall Pond,41.788765,-71.468889,Cranston,RI,Pocassett River,S,,,
WW037,Roger Williams Park Pond (Cunliff Lake),41.778542,-71.41297,Providence,RI,Pawtuxet River,S,,,
WW038,Sand Pond (N. of Airport),41.745261,-71.424635,Warwick,RI,Seekonk River-Providence River,D,,,
WW039,Saugatucket Pond,41.453581,-71.494992,South Kingstown,RI,Saugatucket River,S,,,
WW040,Schoolhouse Pond-Lower,41.395469,-71.665214,Charlestown,RI,Ninigret Pond-Frontal Block Island Sound,D,,,
WW041,Schoolhouse Pond-Upper,41.400531,-71.667686,Charlestown,RI,Ninigret Pond-Frontal Block Island Sound,D,,,
WW042,Secret Lake,41.555019,-71.480589,North Kingstown,RI,Lower West Passage,S,,,
WW043,Shippee Sawmill Pond,41.834822,-71.751681,Foster,RI,Barden Reservoir-Ponaganset River,S,,,
WW044,Silver Lake,41.433967,-71.488181,South Kingstown,RI,Pettaquamscutt River-Frontal Atlantic Ocean,D,,,
WW045,Silver Spring Lake,41.538511,-71.469867,North Kingstown,RI,Pettaquamscutt River-Frontal Atlantic Ocean,S,,,
WW046,Slack's Reservoir,41.859528,-71.55175,Johnston,RI,Woonasquatucket River,D,,,
WW047,Slater Pond,41.871036,-71.344896,Pawtucket,RI,Ten Mile River,S,,,
WW048,Smith and Sayles Reservoir,41.893469,-71.682067,Glocester,RI,Chepachet River,S,,,
WW049,Spectacle Pond,41.790244,-71.442558,Cranston,RI,Pawtuxet River,D,,,
WW050,Spring Grove Pond,41.908847,-71.649328,Glocester,RI,Chepachet River,S,,,
WW051,Spring Lake (Herring Pond),41.982658,-71.664339,Burrillville,RI,Clear River,D,,,
WW052,Stillwater Pond,41.908342,-71.527331,Smithfield,RI,Woonasquatucket River,S,,,
WW053,Sucker Pond,41.936839,-71.668168,Burrillville,RI,Chepachet River,S,,,
WW054,Tarbox Pond,41.634431,-71.568811,West Greenwich,RI,Big River,S,,,
WW055,Tiogue Lake,41.679097,-71.550853,Coventry,RI,South Branch Pawtuxet River,S,,,
WW056,Tucker Pond,41.424494,-71.551047,South Kingstown,RI,Chipuxet River-Pawcatuck River,D,,,
WW057,Turner Reservoir (south),41.840031,-71.339789,East Providence,RI,Ten Mile River,S,,,
WW058,Valley Falls Pond,41.895206,-71.398375,Central Falls,RI,Peters River-Blackstone River,S,,,
WW059,Warwick Pond,41.7228,-71.412906,Warwick,RI,Upper Narragansett Bay,D,,,
WW060,Watchaug Pond,41.379358,-71.690058,Charlestown,RI,Tomaquag Brook-Pawcatuck River,D,,,
WW061,Waterman Reservoir,41.881519,-71.589489,Glocester,RI,Woonasquatucket River,S,,,
WW062,Wenscott Reservoir,41.872736,-71.464036,North Providence,RI,Moshassuck River,S,,,
WW063,Wilson Reservoir,41.967878,-71.727158,Burrillville,RI,Clear River,S,,,
WW064,White Pond,41.414572,-71.545928,South Kingstown,RI,Point Judith Pond-Frontal Block Island Sound,D,,,
WW065,Woonasquatucket Reservoir (Stump Pond),41.906078,-71.544722,Smithfield,RI,Woonasquatucket River,S,,,
WW066,Worden Pond,41.437677,-71.57092,South Kingstown,RI,Chipuxet River-Pawcatuck River,S,,,
WW067,Wyoming Pond,41.516191,-71.702446,Hopkinton,RI,Upper Wood River,S,,,
WW068,Yawgoo Pond,41.510569,-71.57166,South Kingstown,RI,Usquepaug River-Pawcatuck River,D,,,
WW069,Beaver River 1 (Old Mt),41.53869,-71.641044,Richmond,RI,Beaver River,S,,,
WW070,Beaver River 3 (Rte 138),41.492323,-71.627958,Richmond,RI,Beaver River,S,,,
WW071,Beaver River 4 (Shannock),41.464271,-71.627845,Richmond,RI,Beaver River,S,,,
WW072,Falls River A - Twin Bridges,41.579995,-71.72086,West Greenwich,RI,Upper Wood River,S,,,
WW073,Falls River B - Sand Bank,41.587169,-71.731245,Exeter,RI,Upper Wood River,S,,,
WW074,Falls River C - Austin Farm Rd,41.598177,-71.745779,Exeter,RI,Upper Wood River,S,,,
WW075,Falls River D - Stepstone Falls,41.612641,-71.760484,Exeter,RI,Upper Wood River,S,,,
WW076,Locustv. Log House Brook at Grassy-Sand Pond Rd,41.540673,-71.770805,Hopkinton,RI,Lower Wood River,S,,,
WW077,Locustv. Brushy Brook at Woody Hill,41.534474,-71.748054,Hopkinton,RI,Lower Wood River,S,,,
WW078,Locustv. Brushy Brook at Saw Mill,41.527842,-71.736243,Hopkinton,RI,Lower Wood River,S,,,
WW079,Locustv. Moscow Brook at Saw Mill,41.527008,-71.736715,Hopkinton,RI,Lower Wood River,S,,,
WW080,Meadow Brook 1,41.500833,-71.66508,Richmond,RI,Tomaquag Brook-Pawcatuck River,S,,,
WW081,Meadow Brook 2,41.466504,-71.69018,Richmond,RI,Tomaquag Brook-Pawcatuck River,S,,,
WW082,Meadow Brook 3,41.446585,-71.690148,Richmond,RI,Tomaquag Brook-Pawcatuck River,S,,,
WW083,Moosup River Upstream,41.765449,-71.767155,Foster,RI,Upper Moosup River,S,,,
WW084,Moosup River-A - Fairbanks,41.706458,-71.761538,Coventry,RI,Upper Moosup River,S,,,
WW085,Moosup River-B,41.690931,-71.763224,Coventry,RI,Upper Moosup River,S,,,
WW086,Narrow River 01 - Gilbert Stuart Stream,41.519381,-71.445281,North Kingstown,RI,Pettaquamscutt River-Frontal Atlantic Ocean,S,,,
WW087,Narrow River 02 - Upper Pond,41.514214,-71.447789,North Kingstown,RI,Pettaquamscutt River-Frontal Atlantic Ocean,D,,,
WW088,Narrow River 12 - Mumford Brook,41.438846,-71.475098,South Kingstown,RI,Pettaquamscutt River-Frontal Atlantic Ocean,S,,,
WW089,Narrow River 03 - Lower Pond A,41.503847,-71.45155,North Kingstown,RI,Pettaquamscutt River-Frontal Atlantic Ocean,D,,,
WW090,Blackstone Canal at Scott Pond,41.906618,-71.406206,Lincoln,RI,Peters River-Blackstone River,S,,,
WW091,Narrow River 04 - Lower Pond B,41.494719,-71.448764,South Kingstown,RI,Pettaquamscutt River-Frontal Atlantic Ocean,D,,,
WW092,The Reservoir (Camp Canonicus),41.540776,-71.522073,Exeter,RI,Chipuxet River-Pawcatuck River,S,,,
WW093,Narrow River 05 - Lacey Bridge. (South Kingstown/Narragansett),41.488384,-71.447304,South Kingstown,RI,Pettaquamscutt River-Frontal Atlantic Ocean,S,,,
WW094,"Narrow River 06 - Mettatuxet Beach (Narragansett, South Kingstown)",41.475468,-71.448277,Narragansett,RI,Pettaquamscutt River-Frontal Atlantic Ocean,S,,,
WW095,"Narrow River 07 - End of Narrows, (South Kingstown/Narragansett)",41.469,-71.448894,South Kingstown,RI,Pettaquamscutt River-Frontal Atlantic Ocean,S,,,
WW096,Narrow River 08 - Middlebridge / Narrow River 20 - NW Middlebridge,41.457969,-71.450764,South Kingstown,RI,Pettaquamscutt River-Frontal Atlantic Ocean,S,,,
WW097,"Narrow River 09 - Pettaquamscutt (Narragansett, South Kingstown)",41.444172,-71.460867,Narragansett,RI,Pettaquamscutt River-Frontal Atlantic Ocean,S,,,
WW098,Narrow River 10 - Sprague Bridge,41.448594,-71.449317,Narragansett,RI,Pettaquamscutt River-Frontal Atlantic Ocean,S,,,
WW099,Narrow River 11 - Mettatuxet Brook,41.471008,-71.443617,Narragansett,RI,Pettaquamscutt River-Frontal Atlantic Ocean,S,,,
WW100,Queens River (Sherman Brook),41.517794,-71.604454,South Kingstown,RI,Usquepaug River,S,,,
WW101,Queens River (Brownell's - Wm Reynold's Rd),41.562563,-71.547991,Exeter,RI,Usquepaug River,S,,,
WW102,Queens River 5 (Sand Bridge),41.543656,-71.564275,Exeter,RI,Usquepaug River,S,,,
WW103,Queens River (Mail Rd) 06b,41.538969,-71.568641,Exeter,RI,Usquepaug River,S,,,
WW104,Barber Pond-Mud Brook,41.512197,-71.557174,Exeter,RI,Usquepaug River-Pawcatuck River,S,,,
WW105,Belleville Upper Pond Inlet @ RR Xing,41.571719,-71.486458,North Kingstown,RI,Lower West Passage,S,,,
WW106,Belleville Lower Pond Outlet @ Sluiceway,41.557497,-71.472726,North Kingstown,RI,Lower West Passage,S,,,
WW107,Boone Tributary 1/Roaring Brook,41.587845,-71.671288,Exeter,RI,Upper Wood River,S,,,
WW108,Boone Tributary 2/Roaring Brook,41.582932,-71.672485,Exeter,RI,Upper Wood River,S,,,
WW109,Carr Inlet (NK) Eastern,41.525384,-71.446401,North Kingstown,RI,Pettaquamscutt River-Frontal Atlantic Ocean,S,,,
WW110,Flat River Reservoir @ Zeke's Bridge,41.66533,-71.618884,Coventry,RI,Headwaters South Branch Pawtuxet River,S,,,
WW111,Flat River Reservoir @ Isle of Capri,41.672999,-71.607902,Coventry,RI,Headwaters South Branch Pawtuxet River,S,,,
WW112,Flat River @ Maple Valley,41.714721,-71.652406,Coventry,RI,Headwaters South Branch Pawtuxet River,S,,,
WW113,Georgiaville @ Capron Pond/Woonasquatucket River,41.902792,-71.521688,Smithfield,RI,Woonasquatucket River,S,,,
WW114,Georgiaville @ Harris/Harris Brook,41.899054,-71.51003,Smithfield,RI,Woonasquatucket River,S,,,
WW115,Pasquiset Tributary/Pasquisett Brook,41.429549,-71.627942,Charlestown,RI,Usquepaug River-Pawcatuck River,S,,,
WW116,Secret Lake-Oak Hill East/Oak Hill Brook,41.556219,-71.481173,North Kingstown,RI,Lower West Passage,S,,,
WW117,Secret Lake-Oak Hill West/Oak Hill Brook,41.556958,-71.48316,North Kingstown,RI,Lower West Passage,S,,,
WW118,Secret Lake-Shore Dr.,41.554202,-71.476051,North Kingstown,RI,Lower West Passage,S,,,
WW119,Shickasheen Brook @ Rte 2,41.52347,-71.553149,Exeter,RI,Usquepaug River-Pawcatuck River,S,,,
WW120,Shickasheen Brook @ Miskiania,41.520507,-71.571997,Exeter,RI,Usquepaug River-Pawcatuck River,S,,,
WW121,Shickasheen Brook @ Barber Outlet,41.498685,-71.564969,South Kingstown,RI,Usquepaug River-Pawcatuck River,S,,,
WW122,Shickasheen Brook @ Rte 138,41.486348,-71.564517,South Kingstown,RI,Usquepaug River-Pawcatuck River,S,,,
WW123,Slack's Tributary 1 (A - Northwest corner - culvert),41.866375,-71.558561,Smithfield,RI,Woonasquatucket River,S,,,
WW124,"Slack's Tributary 2 (B - SW cove - drainage from 36"" H x 6' wide concrete culvert))",41.859348,-71.557825,Johnston,RI,Woonasquatucket River,S,,,
WW125,"Slack's Tributary 3 (C - Outlet of stream crossing Windsor Ave., discharging into Southernmost cove)",41.855697,-71.556795,Johnston,RI,Woonasquatucket River,S,,,
WW126,"Slack's Tributary 4 (D - Southeast cove - 17"" concrete pipe discharge)",41.855578,-71.549621,Johnston,RI,Woonasquatucket River,S,,,
WW127,Smith & Sayles @ Keech/Trib to S & S,41.884496,-71.68814,Glocester,RI,Chepachet River,S,,,
WW128,Smith & Sayles @ Balcom/Trib to S & S,41.889509,-71.681274,Glocester,RI,Chepachet River,S,,,
WW129,Smith & Sayles @ O'Donnel/Trib to S & S,41.894446,-71.674377,Glocester,RI,Chepachet River,S,,,
WW130,Stafford Pond Inlet-Upstream/Sucker Brook,41.656455,-71.161964,Tiverton,RI,Quequechan River,S,,,
WW131,Stafford Pond Inlet-Downstream/Sucker Brook,41.654926,-71.160345,Tiverton,RI,Quequechan River,S,,,
WW132,Stafford Pond-Northeast(NE) Cove,41.650622,-71.1547,Tiverton,RI,Quequechan River,S,,,
WW133,Watchaug Pond-Perry Healy Brook,41.380209,-71.704082,Charlestown,RI,Tomaquag Brook-Pawcatuck River,S,,,
WW134,Barney Pond,41.896956,-71.417594,Lincoln,RI,Moshassuck River,S,,,
WW135,Bowdish Reservoir,41.922877,-71.770632,Glocester,RI,Upper Fivemile River,S,,,
WW136,Breakheart Pond,41.596494,-71.701839,Exeter,RI,Upper Wood River,S,,,
WW137,Handy Pond (Rochambeau Pond),41.958625,-71.472036,Lincoln,RI,Peters River-Blackstone River,S,,,
WW138,Larkin Pond,41.470014,-71.55785,South Kingstown,RI,Chipuxet River-Pawcatuck River,D,,,
WW139,Olney Pond,41.889017,-71.432644,Lincoln,RI,Moshassuck River,D,,,
WW140,Pleasure Pond (a Roger William Park Pond),41.784922,-71.411982,Providence,RI,Pawtuxet River,S,,,
WW141,Pawcatuck River @ Potter Hill,41.416739,-71.797617,Hopkinton,RI,Tomaquag Brook-Pawcatuck River,S,,,
WW142,Roosevelt Pond (a Roger William Park Pond),41.782844,-71.417313,Providence,RI,Pawtuxet River,S,,,
WW143,Scott Pond,41.898391,-71.407028,Lincoln,RI,Peters River-Blackstone River,D,,,
WW144,Upper Sprague Reservoir,41.892947,-71.564222,Smithfield,RI,Woonasquatucket River,D,,,
WW145,Stafford Pond,41.643428,-71.154869,Tiverton,RI,Quequechan River,D,,,
WW146,Chipuxet River @ Wolf Rocks Rd.,41.505934,-71.531144,Exeter,RI,Chipuxet River-Pawcatuck River,S,,,
WW147,Coventry Reservoir (Stump Pond),41.692767,-71.640317,Coventry,RI,Headwaters South Branch Pawtuxet River,S,,,
WW148,Wash Pond,41.401111,-71.550853,South Kingstown,RI,Point Judith Pond-Frontal Block Island Sound,D,,,
WW149,Beach Pond,41.577011,-71.788636,Exeter,RI,Upper Pachaug River,D,,,
WW150,Carbuncle Pond,41.697074,-71.771506,Coventry,RI,Upper Moosup River,D,,,
WW151,J.L.Curran Reservoir (Fiskeville Reservoir),41.751282,-71.549102,Cranston,RI,North Branch Pawtuxet River,D,,,
WW152,Wakefield Pond,41.959444,-71.792458,Burrillville,RI,Upper Fivemile River,D,,,
WW153,Woonasquatucket Reservoir-South end,41.892444,-71.538289,Smithfield,RI,Woonasquatucket River,S,,,
WW154,Gorton Pond,41.705233,-71.460264,Warwick,RI,Greenwich Bay,D,,,
WW155,Lake Washington,41.916622,-71.756942,Glocester,RI,Upper Fivemile River,S,,,
WW156,Quicksand Pond,41.505196,-71.131313,Little Compton,RI,Sakonnet Point-Frontal Rhode Island Sound,S,,,
WW157,Wallum Pond,41.999523,-71.76595,Burrillville,RI,Clear River,D,,,
WW158,Slatersville Reservoir - Upper,41.993045,-71.595605,North Smithfield,RI,Branch River,D,,,
WW159,Briggs Marsh Pond,41.477207,-71.166859,Little Compton,RI,Sakonnet Point-Frontal Rhode Island Sound,S,,,
WW160,Eisenhower Lake,41.621048,-71.715856,West Greenwich,RI,Upper Wood River,S,,,
WW161,Upper Dam Pond (Breezy Lake),41.705822,-71.553466,Coventry,RI,South Branch Pawtuxet River,S,,,
WW162,Saugatucket Inlet,41.464688,-71.490832,South Kingstown,RI,Saugatucket River,S,,,
WW163,Slater Outlet-Ten Mile River,41.870377,-71.342369,Pawtucket,RI,Ten Mile River,S,,,
WW164,Slater Trib-Boathouse,41.871434,-71.34479,Pawtucket,RI,Ten Mile River,S,,,
WW165,Slater Trib-Friendship Garden,41.870356,-71.347341,Pawtucket,RI,Ten Mile River,S,,,
WW166,Keech Inlet 1,,,Glocester,RI,Chepachet River,S,,,
WW167,Keech Inlet 2,,,Glocester,RI,Chepachet River,S,,,
WW168,Keech Inlet 3,,,Glocester,RI,Chepachet River,S,,,
WW169,Potter Pond - Mid Pond (P3),41.383992,-71.531167,South Kingstown,RI,Point Judith Pond-Frontal Block Island Sound,S,,,
WW170,Quicksand @ Cole Bk./North Trib,41.520448,-71.137788,Little Compton,RI,Sakonnet Point-Frontal Rhode Island Sound,S,,,
WW171,Quicksand @ East Trib/East of Cole Brook (Pottsville Brook),41.524173,-71.134466,Little Compton,RI,Sakonnet Point-Frontal Rhode Island Sound,S,,,
WW172,Wakefield Trib. 1,,,Burrillville,RI,Upper Fivemile River,S,,,
WW173,Wakefield Trib. 2,,,Burrillville,RI,Upper Fivemile River,S,,,
WW174,Wakefield Trib. 3,,,Burrillville,RI,Upper Fivemile River,S,,,
WW175,Wakefield Trib. 4,,,Burrillville,RI,Upper Fivemile River,S,,,
WW176,Whaley 1,41.721991,-71.669919,Coventry,RI,Headwaters South Branch Pawtuxet River,S,,,
WW177,Whaley 2,41.720158,-71.667154,Coventry,RI,Headwaters South Branch Pawtuxet River,S,,,
WW178,Whaley 3,41.71917,-71.664684,Coventry,RI,Headwaters South Branch Pawtuxet River,S,,,
WW179,Acid Factory Brook - Eisenhower Trib. @ StubleBrook Rd,41.636925,-71.702661,West Greenwich,RI,Upper Wood River,S,,,
WW180,Simmons Reservoir-Upper,41.797692,-71.519769,Johnston,RI,Pocassett River,S,,,
WW181,Tippencansett Pond,41.598397,-71.782523,West Greenwich,RI,Upper Wood River,S,,,
WW182,Ponagansett Reservoir,41.872307,-71.74264,Glocester,RI,Barden Reservoir-Ponaganset River,S,,,
WW183,Melville Pond - Upper,41.583778,-71.272747,Portsmouth,RI,Upper East Passage,S,,,
WW184,Briggs East Trib/Briggs Marsh Pond Tributaries,41.480113,-71.160393,Little Compton,RI,Sakonnet Point-Frontal Rhode Island Sound,S,,,
WW185,Briggs North Trib/Dundery Brook,41.48743,-71.170174,Little Compton,RI,Sakonnet Point-Frontal Rhode Island Sound,S,,,
WW186,Wood River @ Woodville,41.460466,-71.718215,Richmond,RI,Lower Wood River,S,,,
WW187,Wood River @ Route 165,41.574001,-71.720675,Exeter,RI,Upper Wood River,S,,,
WW188,Locustville/Dawley Brook,41.530355,-71.727524,Hopkinton,RI,Lower Wood River,S,,,
WW189,Tidal Pawcatuck River @ Avondale,41.333207,-71.839866,Westerly,RI,Lower Pawcatuck River,D,,,
WW190,Annaquatucket Mill Pond,41.550503,-71.441316,North Kingstown,RI,Lower West Passage,S,,,
WW191,Meadow Brook Inlet,41.443964,-71.690624,Richmond,RI,Tomaquag Brook-Pawcatuck River,S,,,
WW192,Wesquage Pond 2,41.477417,-71.426467,Narragansett,RI,Lower West Passage,S,,,
WW193,Queen River 1/Stony Lane,41.595036,-71.544631,Exeter,RI,Usquepaug River,S,,,
WW194,Queen River 2/Golf Course (0.5 miles south of Victory Hwy),41.571489,-71.545175,Exeter,RI,Usquepaug River,S,,,
WW195,Queen River 3/Fisherville Brook,41.561925,-71.561933,Exeter,RI,Usquepaug River,S,,,
WW196,Queen River 4/Ladd School,41.554847,-71.549417,Exeter,RI,Usquepaug River,S,,,
WW197,Pt Judith Pond - Central (Narragansett/South Kingstown),41.395896,-71.512369,Narragansett,RI,Point Judith Pond-Frontal Block Island Sound,S,,,
WW198,Queen River 6/Eppley (Audubon footbridge),41.521264,-71.587728,Exeter,RI,Usquepaug River,S,,,
WW199,Almy Pond,41.459166,-71.312405,Newport,RI,Aquidneck Island-Frontal Atlantic Ocean,S,,,
WW200,Chapman Pond,41.380384,-71.795259,Westerly,RI,Tomaquag Brook-Pawcatuck River,S,,,
WW201,Hawkins Pond,41.860291,-71.544422,Johnston,RI,Woonasquatucket River,S,,,
WW202,Almy Reservoir (Jillson Reservoir),41.815907,-71.520183,Johnston,RI,Pocassett River,D,,,
WW203,Nanaquaket Pond,41.615894,-71.204907,Tiverton,RI,Sakonnet River,S,,,
WW204,Tarkiln Pond,41.963897,-71.595746,North Smithfield,RI,Branch River,S,,,
WW205,Chepachet River,41.913884,-71.670323,Glocester,RI,Chepachet River,S,,,
WW206,Queen River 7 @ Dugway Bridge,41.517188,-71.600387,South Kingstown,RI,Usquepaug River,S,,,
WW207,Queen River @ Locke Brook,41.537401,-71.587494,Exeter,RI,Usquepaug River,S,,,
WW208,Arnold Pond,41.668914,-71.747127,Coventry,RI,Upper Moosup River,,,,
WW209,Asa Pond,41.458954,-71.512679,South Kingstown,RI,Saugatucket River,S,,,
WW210,Billings Lake,41.508526,-71.87439,North Stonington,CT,Lower Pachaug River,D,,,
WW211,Blue Lake (Anderson Pond),41.50823,-71.895847,North Stonington,CT,Lower Pachaug River,S,,,
WW212,Lily Pond,41.462837,-71.320427,Newport,RI,Aquidneck Island-Frontal Atlantic Ocean,S,,,
WW213,Nichols Pond,41.954363,-71.600896,Burrillville,RI,Branch River,S,,,
WW214,Wincheck Pond,41.51962,-71.765968,Hopkinton,RI,Lower Wood River,D,,,
WW215,Spaulding Pond,41.447092,-71.83057,North Stonington,CT,Ashaway River,S,,,
WW216,Wyassup Lake,41.487409,-71.873345,North Stonington,CT,Ashaway River,D,,,
WW217,Bailey Brook (Clambake Club),41.510871,-71.293284,Middletown,RI,Aquidneck Island-Frontal Atlantic Ocean,S,,,
WW218,Buckeye Brook @ Novelty Rd,41.711538,-71.387724,Warwick,RI,Upper Narragansett Bay,S,,,
WW219,Buckeye Brook @ Lockwood Brk,41.713727,-71.379332,Warwick,RI,Upper Narragansett Bay,S,,,
WW220,Buckeye Brook @ Warner Brk,41.706942,-71.380396,Warwick,RI,Upper Narragansett Bay,S,,,
WW221,Buckeye Brook @ Mill Cove,41.71213,-71.375429,Warwick,RI,Upper Narragansett Bay,S,,,
WW222,Moshassuck River @ Collyer Field,41.853532,-71.406027,Providence,RI,Moshassuck River,S,,,
WW223,Shickasheen @ Potter Road (Skagg's old dam),41.521251,-71.563355,Exeter,RI,Usquepaug River-Pawcatuck River,S,,,
WW224,Sandhill Brook (Saw Mill Pond Inlet),41.61053,-71.466444,North Kingstown,RI,Hunt River,S,,,
WW225,Shickasheen Brook @ Liberty Lane,41.48037,-71.573338,South Kingstown,RI,Usquepaug River-Pawcatuck River,S,,,
WW226,Woonasquatucket River @ Cricket Park,41.865593,-71.492459,Johnston,RI,Woonasquatucket River,S,,,
WW227,Woonasquatucket River @ Donigian Park,41.822595,-71.440308,Providence,RI,Woonasquatucket River,S,,,
WW228,Asseconk Swamp,41.438064,-71.884998,North Stonington,CT,Shunock River,S,,,
WW229,GB 1 - Maskerchugg River @ Rte 1,41.650125,-71.457585,East Greenwich,RI,Greenwich Bay,S,,,
WW230,GB 2 - Burger King (Gorton Pond Tributary),41.698437,-71.461954,Warwick,RI,Greenwich Bay,S,,,
WW231,GB 3 - Pipe @ Rte 115,41.69904,-71.465133,Warwick,RI,Greenwich Bay,S,,,
WW232,GB 4 - Mill Brook (75 yards upstream from Meadow Street Culvert),41.696736,-71.45992,Warwick,RI,Greenwich Bay,S,,,
WW233,GB 5 - Hardig Brook at Nursing Home (Glen Drive),41.694423,-71.504975,West Warwick,RI,Greenwich Bay,S,,,
WW234,GB 6 - Tuscatucket Brook (Upstream of Rte 117),41.704162,-71.420484,Warwick,RI,Greenwich Bay,S,,,
WW235,GB 7 - Southern Creek (Upstream of culvert at White Avenue),41.698358,-71.423013,Warwick,RI,Greenwich Bay,S,,,
WW236,Shunock River @ Babcock,41.440995,-71.881204,North Stonington,CT,Shunock River,S,,,
WW237,Shunock River @ Hewitt,41.446991,-71.89153,North Stonington,CT,Shunock River,S,,,
WW238,Waterman Tributary @ Rte 44 (Nine Foot Brook),41.883532,-71.582255,Glocester,RI,Woonasquatucket River,S,,,
WW239,Waterman Tributary @ Saw Mill (Cutler Brook),41.884593,-71.599831,Glocester,RI,Woonasquatucket River,S,,,
WW240,Waterman Tributary @ Golf Course,41.884085,-71.591567,Glocester,RI,Woonasquatucket River,S,,,
WW241,Waterman Tributary @ Aldrich,41.872043,-71.588646,Glocester,RI,Woonasquatucket River,S,,,
WW242,Ashaway River @ Rte 216,41.42496,-71.789741,Hopkinton,RI,Ashaway River,S,,,
WW243,Ashaway River @ Wellstown Rd.,41.438346,-71.790053,Hopkinton,RI,Ashaway River,S,,,
WW244,"Pawcatuck River @ Biscuit City Rd (Charlestown, Richmond)",41.449681,-71.61566,Charlestown,RI,Usquepaug River-Pawcatuck River,S,,,
WW245,Chipuxet River @ Rte 138,41.482566,-71.551189,South Kingstown,RI,Chipuxet River-Pawcatuck River,S,,,
WW246,Glen Rock Brook,41.516307,-71.605576,South Kingstown,RI,Usquepaug River,S,,,
WW247,Lewis Pond outlet,41.420437,-71.82192,North Stonington,CT,Lower Pawcatuck River,S,,,
WW248,Pawcatuck River below Bradford (Hopkinton/Westerly),41.398614,-71.765793,Hopkinton,RI,Tomaquag Brook-Pawcatuck River,S,,,
WW249,"Pawcatuck River @ Burdickville Rd (Hopkinton, Chalestown)",41.416314,-71.729071,Hopkinton,RI,Tomaquag Brook-Pawcatuck River,S,,,
WW250,"Pawcatuck River @ Chase Hill Rd. (Westerly, Hopkinton)",41.399321,-71.799688,Westerly,RI,Tomaquag Brook-Pawcatuck River,S,,,
WW251,"Pawcatuck River below Kenyon Ind. (Charlestown, Richmond)",41.448538,-71.632394,RICHMOND,RI,Usquepaug River-Pawcatuck River,S,,,
WW252,Pawcatuck River @ Rte 91,41.445178,-71.68113,Richmond,RI,Tomaquag Brook-Pawcatuck River,S,,,
WW253,Queen River @ Rte 102,41.578675,-71.542936,Exeter,RI,Usquepaug River,S,,,
WW254,Taney Brook,41.460699,-71.6478,Richmond,RI,Usquepaug River-Pawcatuck River,S,,,
WW255,Tomaquag Brk @ Woodville Rd.,41.460574,-71.77551,Hopkinton,RI,Tomaquag Brook-Pawcatuck River,S,,,
WW256,Usquepaugh River @ Rte 2,41.476866,-71.604386,South Kingstown,RI,Usquepaug River,S,,,
WW257,Nanaquaket Trib @ Quaket Brook,41.601749,-71.197796,Tiverton,RI,Sakonnet River,S,,,
WW258,Nanaquaket Trib @ Sin & Flesh Brook,41.619254,-71.203351,Tiverton,RI,Sakonnet River,S,,,
WW259,Nanaquaket Trib @ White Wine Brook,41.612636,-71.195701,Tiverton,RI,Sakonnet River,S,,,
WW260,Green Hill Pond - In Pond (center),41.370716,-71.615082,South Kingstown,RI,Ninigret Pond-Frontal Block Island Sound,D,,,
WW261,Green Hill Pond - Indigo Point,41.374138,-71.618774,South Kingstown,RI,Ninigret Pond-Frontal Block Island Sound,S,,,
WW262,Green Hill Pond - Sea Lea (Allen Cove),41.369175,-71.625053,Charlestown,RI,Ninigret Pond-Frontal Block Island Sound,S,,,
WW263,Green Hill Pond - Teal Road,41.37732,-71.609808,South Kingstown,RI,Ninigret Pond-Frontal Block Island Sound,S,,,
WW264,Green Hill Pond - Twin Peninsula,41.372615,-71.61045,South Kingstown,RI,Ninigret Pond-Frontal Block Island Sound,S,,,
WW265,Ninigret Pond - Crawford Dock,41.347473,-71.697365,Charlestown,RI,Ninigret Pond-Frontal Block Island Sound,S,,,
WW266,Ninigret Pond - Ft. Neck Cove,41.38043,-71.647348,Charlestown,RI,Ninigret Pond-Frontal Block Island Sound,S,,,
WW267,Ninigret Pond - Pond Street,41.36701,-71.629953,Charlestown,RI,Ninigret Pond-Frontal Block Island Sound,S,,,
WW268,Ninigret Pond - Stumpy Point,41.378807,-71.646278,Charlestown,RI,Ninigret Pond-Frontal Block Island Sound,D,,,
WW269,Ninigret Pond - Tockwotten Dock,41.37068,-71.637068,Charlestown,RI,Ninigret Pond-Frontal Block Island Sound,S,,,
WW270,Ninigret Pond - Tom Cod,41.371567,-71.65247,Charlestown,RI,Ninigret Pond-Frontal Block Island Sound,S,,,
WW271,Ninigret Pond - Vigna's Dock,41.369907,-71.639336,Charlestown,RI,Ninigret Pond-Frontal Block Island Sound,S,,,
WW272,Great Salt Pond 1 (mid-harbor @ town can 5),41.187315,-71.577951,New Shoreham,RI,Block Island,D,,,
WW273,Great Salt Pond 2 (Narragansett Inn),41.182599,-71.576404,New Shoreham,RI,Block Island,S,,,
WW274,Great Salt Pond 3 (Off Champlain's Dock),41.184521,-71.58106,New Shoreham,RI,Block Island,S,,,
WW275,Great Salt Pond 4 (Trim's Pond),41.179903,-71.572263,New Shoreham,RI,Block Island,S,,,
WW276,"Great Salt Pond Trib. Trib 1 (Mill Tail Pond, Ocean Ave. culvert)",41.174089,-71.563622,New Shoreham,RI,Block Island,S,,,
WW277,Great Salt Pond Trib. Trib 2 (Bridgegate Square culvert),41.173901,-71.563667,New Shoreham,RI,Block Island,S,,,
WW278,Great Salt Pond Trib. Trib 3 (Comorant Cove salt marsh culvert),41.189194,-71.588816,New Shoreham,RI,Block Island,S,,,
WW279,Great Salt Pond Trib. Trib 4 (Beach Avenue),41.176182,-71.573145,New Shoreham,RI,Block Island,S,,,
WW280,Great Salt Pond Trib. Trib 5 (Harris Pt),41.193582,-71.574265,New Shoreham,RI,Block Island,S,,,
WW281,Great Salt Pond Trib. Trib 6 (Scott's),41.190246,-71.570553,New Shoreham,RI,Block Island,S,,,
WW282,Watch Hill Surfing Area,41.305084,-71.859737,Westerly,RI,Southwest Coastal Waters-Frontal Block Island Sound,S,,,
WW283,Misquamicut DEM Surfing Area,41.319542,-71.808052,Westerly,RI,Southwest Coastal Waters-Frontal Block Island Sound,S,,,
WW284,Weekapaug Breachway Surfing Area,41.327098,-71.763784,Westerly,RI,Southwest Coastal Waters-Frontal Block Island Sound,S,,,
WW285,Deep Hole Surfing Area,41.372293,-71.537538,South Kingstown,RI,Point Judith Pond-Frontal Block Island Sound,S,,,
WW286,The K's Surfing Area,41.369188,-71.496092,Narragansett,RI,Point Judith Pond-Frontal Block Island Sound,S,,,
WW287,Conant Ave. Surfing Area,41.372217,-71.483145,Narragansett,RI,Pettaquamscutt River-Frontal Atlantic Ocean,S,,,
WW288,Scarborough South Surfing Area,41.385285,-71.474571,Narragansett,RI,Pettaquamscutt River-Frontal Atlantic Ocean,S,,,
WW289,Scarborough DEM Surfing Area,41.392356,-71.469168,Narragansett,RI,Pettaquamscutt River-Frontal Atlantic Ocean,S,,,
WW290,Monahan's Surfing Area,41.422416,-71.454256,Narragansett,RI,Pettaquamscutt River-Frontal Atlantic Ocean,S,,,
WW291,Narragansett Pier @ the Steps Surfing Area,41.432304,-71.456079,Narragansett,RI,Pettaquamscutt River-Frontal Atlantic Ocean,S,,,
WW292,First Beach Surfing Area,41.484913,-71.295759,Newport,RI,Aquidneck Island-Frontal Atlantic Ocean,S,,,
WW293,Second Beach,41.487949,-71.264144,Middletown,RI,Aquidneck Island-Frontal Atlantic Ocean,S,,,
WW294,Third Beach Surfing Area,41.490108,-71.2465,Middletown,RI,Sakonnet River,S,,,
WW295,Elm Pond,41.774668,-71.41234,Providence,RI,Pawtuxet River,D,,,
WW296,White Brook @ Pine Hill Rd,41.467171,-71.670601,Richmond,RI,Tomaquag Brook-Pawcatuck River,S,,,
WW297,Chipuxet River @ Yawgoo Valley Rd.,41.517907,-71.525556,Exeter,RI,Chipuxet River-Pawcatuck River,S,,,
WW298,Browning Mill Pond,41.557935,-71.690326,Exeter,RI,Upper Wood River,S,,,
WW299,Round Pond,41.46321,-71.187198,Little Compton,RI,Sakonnet Point-Frontal Rhode Island Sound,S,,,
WW300,Simmons Mill Pond,41.537585,-71.14765,Little Compton,RI,Sakonnet Point-Frontal Rhode Island Sound,S,,,
WW301,Wickaboxet Pond,41.629988,-71.768935,West Greenwich,RI,Upper Wood River,S,,,
WW302,Green Falls River 1 (@ Green Falls Rd),41.542858,-71.802475,North Stonington,CT,Ashaway River,S,,,
WW303,Green Falls River 2 (@ Putker),41.472412,-71.816299,North Stonington,CT,Ashaway River,S,,,
WW304,Green Falls - Rte 184,41.443211,-71.796295,Hopkinton,RI,Ashaway River,S,,,
WW305,Himes River @ Layfayette Rd,41.56086,-71.494438,North Kingstown,RI,Lower West Passage,S,,,
WW306,Wickford Harbor between Rabbit Is. and Cornelius Is.,41.579803,-71.452198,North Kingstown,RI,Lower West Passage,S,,,
WW307,Little Maschaug Pond,41.321333,-71.821639,Westerly,RI,Ninigret Pond-Frontal Block Island Sound,S,,,
WW308,Woonasquatucket River @ Waterplace Park,41.826576,-71.414062,Providence,RI,Woonasquatucket River,S,,,
WW309,Quonochontaug Pond - Judge's Rock,41.333056,-71.747167,Westerly,RI,Ninigret Pond-Frontal Block Island Sound,D,,,
WW310,Tomaquag Brook @ Chase Hill,41.410816,-71.763672,Hopkinton,RI,Tomaquag Brook-Pawcatuck River,S,,,
WW311,Asseconk Brook @ Rte 2,41.438511,-71.884361,North Stonington,CT,Ashaway River,S,,,
WW312,Shunock River @ Below Parke Pond,41.442307,-71.877022,North Stonington,CT,Shunock River,S,,,
WW313,Shunock River @ Main St,41.441151,-71.881058,North Stonington,CT,Shunock River,S,,,
WW314,White Brook Pond,41.46508,-71.670258,Richmond,RI,Tomaquag Brook-Pawcatuck River,S,,,
WW315,Greenwich Bay 2 - Sally Rock,41.672285,-71.412778,Warwick,RI,Greenwich Bay,D,,,
WW316,Greenwich Bay 3 - The Brothers,41.680977,-71.434584,Warwick,RI,Greenwich Bay,D,,,
WW317,Greenwich Bay 4 - Greenwich Bay Marina,41.684943,-71.445853,Warwick,RI,Greenwich Bay,D,,,
WW318,Greenwich Bay 6 - Ponaug Marina,41.696269,-71.45279,Warwick,RI,Greenwich Bay,S,,,
WW319,Greenwich Bay 8 - Little Rhody Boat Club,41.690398,-71.404225,Warwick,RI,Greenwich Bay,S,,,
WW320,Greenwich Bay 9 - Warwick Cove Marina,41.68756,-71.392835,Warwick,RI,Greenwich Bay,S,,,
WW321,Greenwich Bay 1 - Middle Ground Buoy,41.671211,-71.397765,Warwick,RI,Greenwich Bay,D,,,
WW322,Greenwich Bay 10 - Greenwich Bay North Marina,41.692957,-71.390351,Warwick,RI,Greenwich Bay,S,,,
WW323,Greenwich Bay 11 - Mouth of Greenwich Cove,41.668753,-71.439929,Warwick,RI,Greenwich Bay,S,,,
WW324,Greenwich Bay 12 - Harborside,41.661712,-71.444117,East Greenwich,RI,Greenwich Bay,S,,,
WW325,Greenwich Bay 13 - EG Town Dock,41.656283,-71.448264,East Greenwich,RI,Greenwich Bay,S,,,
WW326,Greenwich Bay 14 - Wharf Marina,41.696678,-71.388553,Warwick,RI,Greenwich Bay,S,,,
WW327,Narrow River 15 - Crooked Brook @ Farm,41.428692,-71.466441,Narragansett,RI,Pettaquamscutt River-Frontal Atlantic Ocean,S,,,
WW328,Narrow River 16 - Crooked Brook @ School,41.433934,-71.466914,Narragansett,RI,Pettaquamscutt River-Frontal Atlantic Ocean,S,,,
WW329,Great Salt Pond Trib. 9 (Negus Park),41.176046,-71.570066,New Shoreham,RI,Block Island,S,,,
WW330,Great Salt Pond Trib. 10 (Island Hardware),41.174802,-71.567825,New Shoreham,RI,Block Island,S,,,
WW331,Great Salt Pond Trib. 11 (Sullivan's),41.183856,-71.568731,New Shoreham,RI,Block Island,S,,,
WW332,Narrow River 13 - Near Lakeside Rd.,41.492231,-71.446705,Narragansett,RI,Pettaquamscutt River-Frontal Atlantic Ocean,S,,,
WW333,Narrow River 14 - Lakeside Rd. Outflow,41.491467,-71.446527,Narragansett,RI,Pettaquamscutt River-Frontal Atlantic Ocean,S,,,
WW334,Sisson Pond (Waterman Pond),41.71392,-71.729553,Coventry,RI,Upper Moosup River,S,,,
WW335,Great Salt Pond Trib. 7 (Trim's Pond West),41.177458,-71.576946,New Shoreham,RI,Block Island,S,,,
WW336,Great Salt Pond Trib. 8 (Meyer's),41.16829,-71.56697,New Shoreham,RI,Block Island,S,,,
WW337,Kettle Hole Pond,41.546783,-71.490417,North Kingstown,RI,Lower West Passage,S,,,
WW338,Shickasheen Brook @ Yawgoo Inlet,41.516232,-71.573514,Exeter,RI,Usquepaug River-Pawcatuck River,S,,,
WW339,Printworks Pond,41.794903,-71.46004,Cranston,RI,Pocassett River,S,,,
WW340,Clarkville Pond,41.922275,-71.788518,Glocester,RI,Upper Fivemile River,S,,,
WW341,HW6 - Hunt River (@ Forge Rd),41.641357,-71.445035,North Kingstown,RI,Hunt River,S,,,
WW342,Meshanticut Pond,41.768972,-71.475951,Cranston,RI,Pawtuxet River,S,,,
WW343,Ashville Pond,41.500915,-71.755617,Hopkinton,RI,Lower Wood River,S,,,
WW344,Pt Judith Pond - Gardiner Island,41.407192,-71.508003,South Kingstown,RI,Point Judith Pond-Frontal Block Island Sound,D,,,
WW345,Quonochontaug Pond - Harmonic Cove,41.337776,-71.73867,Westerly,RI,Ninigret Pond-Frontal Block Island Sound,S,,,
WW346,Quonochontaug Pond - N. of Bill's Is.,41.343723,-71.71936,Charlestown,RI,Ninigret Pond-Frontal Block Island Sound,D,,,
WW347,Quonochontaug Pond - Shady Harbor Bk,41.349083,-71.718086,Charlestown,RI,Ninigret Pond-Frontal Block Island Sound,S,,,
WW348,Ninigret Pond - Potato Point,41.368599,-71.646606,Charlestown,RI,Ninigret Pond-Frontal Block Island Sound,D,,,
WW349,Winnapaug Pond - Aquaculture,41.330276,-71.787361,Westerly,RI,Southwest Coastal Waters,S,,,
WW350,Winnapaug Pond - Breachway,41.335361,-71.768028,Westerly,RI,Southwest Coastal Waters,S,,,
WW351,Winnapaug Pond - Golf Course Cove,41.338402,-71.778793,Westerly,RI,Southwest Coastal Waters,S,,,
WW352,Winnapaug Pond - SWest Corner,41.328362,-71.803696,Westerly,RI,Southwest Coastal Waters,S,,,
WW353,Barberville Pond (Wood River impoundment adjacent to the WPWA campus),41.540676,-71.696053,Richmond,RI,Upper Wood River,S,,,
WW354,Beaver River 2 (Hillsdale Rd.),41.525543,-71.639275,Richmond,RI,Beaver River,S,,,
WW355,Beaver River 5 (Lewiston Rd.),41.454723,-71.628632,Richmond,RI,Beaver River,S,,,
WW356,Bonnet Beach @ Club,41.472299,-71.427186,Narragansett,RI,Lower West Passage,S,,,
WW357,Bonnet Beach @ Kelly,41.471389,-71.429644,Narragansett,RI,Lower West Passage,S,,,
WW358,Bonnet Beach @ Wesquage Outflow,41.472474,-71.423924,Narragansett,RI,Lower West Passage,S,,,
WW359,Buckeye Brook @ Old Warwick Ave,41.714282,-71.398305,Warwick,RI,Upper Narragansett Bay,S,,,
WW360,Flat River Reservoir @ Acres of Pine,41.697951,-71.617539,Coventry,RI,Headwaters South Branch Pawtuxet River,S,,,
WW361,Flat River Reservoir @ Colwells / Marina,41.705141,-71.629097,Coventry,RI,Headwaters South Branch Pawtuxet River,S,,,
WW362,Flat River Reservoir @ Dam,41.698226,-71.594956,Coventry,RI,Headwaters South Branch Pawtuxet River,S,,,
WW363,Flat River Reservoir @ Lazy Croft,41.702329,-71.626562,Coventry,RI,Headwaters South Branch Pawtuxet River,S,,,
WW364,Flat River Reservoir @ Raymonds Pt,41.696243,-71.607847,Coventry,RI,Headwaters South Branch Pawtuxet River,S,,,
WW365,Flat River Reservoir @ Wood Cove,41.680227,-71.6019,Coventry,RI,Headwaters South Branch Pawtuxet River,S,,,
WW366,Flat River Reservoir @ Hall's Beach,41.703487,-71.622982,Coventry,RI,Headwaters South Branch Pawtuxet River,S,,,
WW367,Greenwich Bay 15 - Brushneck Cove,41.688066,-71.403828,Warwick,RI,Greenwich Bay,S,,,
WW368,Green Falls at Green Falls Pond,41.536576,-71.810181,North Stonington,CT,Ashaway River,S,,,
WW369,Williams Pond,41.63028,-72.303826,Lebanon,CT,Deep River-Frontal Fishers Island Sound,S,,,
WW370,Melville Pond - Lower,41.591713,-71.278767,Portsmouth,RI,Upper East Passage,S,,,
WW371,Pawtuxet River @ Sandy Bottom Rd,41.685999,-71.560653,Coventry,RI,South Branch Pawtuxet River,S,,,
WW372,Queen's Fort Brook (at Main Street into Job Corp),41.547001,-71.548164,Exeter,RI,Usquepaug River,S,,,
WW373,Quicksand Pond @ Gut,41.499255,-71.125637,Little Compton,RI,Sakonnet Point-Frontal Rhode Island Sound,S,,,
WW374,Quicksand Pond Trib - Pottsville Brook (Tribs East of Cole Brook),41.52559,-71.130919,Little Compton,RI,Sakonnet Point-Frontal Rhode Island Sound,S,,,
WW375,"Quicksand Pond Trib - Cole Brook, Upper (Pottsville Rd.)",41.522889,-71.139164,Little Compton,RI,Sakonnet Point-Frontal Rhode Island Sound,S,,,
WW376,Quicksand Pond Trib - Rock Bridge Creek (@ Rockbridge Dr.),41.516794,-71.129251,Little Compton,RI,Sakonnet Point-Frontal Rhode Island Sound,S,,,
WW377,Saugatucket River @ Rte 138. Saug 1,41.490722,-71.487091,South Kingstown,RI,Saugatucket River,S,,,
WW378,Saugatucket River @ Broad Rock Rd. Saug 1,41.488339,-71.48483,South Kingstown,RI,Saugatucket River,S,,,
WW380,Saugatucket River @ Saugatucket Rd. Saug 3,41.464648,-71.490733,South Kingstown,RI,Saugatucket River,S,,,
WW381,Saugatucket River just below Saugatucket Pond Dam. Saug 3,41.451683,-71.496144,South Kingstown,RI,Saugatucket River,S,,,
WW382,Saugatucket River @ Church Street. Saug 4,41.44776,-71.496604,South Kingstown,RI,Saugatucket River,S,,,
WW383,"Saugatucket River Trib @ Kingstown Rd. (Rocky Brook), Saug5",41.451725,-71.501465,South Kingstown,RI,Saugatucket River,S,,,
WW384,"Saugatucket River @ Wakefield School footbridge, Saug 5",41.439114,-71.500013,South Kingstown,RI,Saugatucket River,S,,,
WW385,Saugatucket River @ Main Street Dam. Saug 6,41.437322,-71.501247,South Kingstown,RI,Saugatucket River,S,,,
WW386,Saugatucket River Trib - Indian Run River @ Peace Dale Green/Guild. Saug 4,41.450004,-71.494798,South Kingstown,RI,Saugatucket River,S,,,
WW387,Saugatucket River Trib - Indian Lake outflow @ Broad Rock Rd. (Fresh Meadow Brook). Saug 7,41.47906,-71.482454,South Kingstown,RI,Saugatucket River,S,,,
WW388,Schoolhouse Spring,,,Charlestown,RI,Ninigret Pond-Frontal Block Island Sound,S,,,
WW389,Shickasheen @ Arrow Swamp,41.527657,-71.554436,Exeter,RI,Usquepaug River-Pawcatuck River,S,,,
WW390,Shickasheen @ Waites Corner Rd. (Richmond Farm),41.490001,-71.55862,South Kingstown,RI,Usquepaug River-Pawcatuck River,S,,,
WW391,Wood River @ Switch Rd.,41.491318,-71.715401,Hopkinton,RI,Lower Wood River,S,,,
WW392,Smith & Sayles - Dam,41.902049,-71.677654,Glocester,RI,Chepachet River,S,,,
WW394,Acid Factory Brook at inlet to Eisenhower Lake,41.624008,-71.715706,West Greenwich,RI,Upper Wood River,S,,,
WW395,Asseconk Brook @ Jeremy Hill,41.438705,-71.910408,North Stonington,CT,Ashaway River,S,,,
WW396,Breakheart Brook,41.588036,-71.709351,Exeter,RI,Upper Wood River,S,,,
WW397,Cedar Swamp Brook,41.427074,-71.695,Charlestown,RI,Tomaquag Brook-Pawcatuck River,S,,,
WW398,Glade Brook,41.468136,-71.808098,North Stonington,CT,Ashaway River,S,,,
WW399,Kelley Brook,41.612255,-71.753281,West Greenwich,RI,Upper Wood River,S,,,
WW400,BI Beach Club,41.196128,-71.574202,New Shoreham,RI,Block Island,S,,,
WW401,Pendelton Hill Brook,41.474796,-71.834053,North Stonington,CT,Ashaway River,S,,,
WW402,Rake Factory Brook,41.519803,-71.59827,South Kingstown,RI,Usquepaug River,S,,,
WW403,Roaring Bk @ Arcadia,41.558411,-71.685196,Exeter,RI,Upper Wood River,S,,,
WW404,Roaring Bk @ Summit Rd,41.556892,-71.697853,Exeter,RI,Upper Wood River,S,,,
WW405,Shunock River @ Rte 49,41.410176,-71.844728,North Stonington,CT,Shunock River,S,,,
WW406,Mishnock Lake - Little,41.653658,-71.594097,West Greenwich,RI,South Branch Pawtuxet River,S,,,
WW407,Bailey Brook (Market),41.516171,-71.295636,Middletown,RI,Aquidneck Island-Frontal Atlantic Ocean,S,,,
WW408,Bailey Brook (SRU - 1),41.526359,-71.293692,Middletown,RI,Aquidneck Island-Frontal Atlantic Ocean,S,,,
WW409,Bailey Brook (SRU - 2),41.505808,-71.290883,Middletown,RI,Aquidneck Island-Frontal Atlantic Ocean,S,,,
WW410,Moosup River - Deerfield Dr. (CT),41.691972,-71.799732,Oneco,CT,Upper Moosup River,S,,,
WW411,Parmentier Brk @ Clark Falls Rd.,41.461674,-71.782951,Hopkinton,RI,Ashaway River,S,,,
WW412,White Horn Brook @ Ministerial Rd.,41.462859,-71.55464,South Kingstown,RI,Chipuxet River-Pawcatuck River,S,,,
WW413,White Brook Pond Outlet (White Brook),41.4636,-71.671669,Richmond,RI,Tomaquag Brook-Pawcatuck River,S,,,
WW414,Blackstone River @ Manville Falls,41.971224,-71.471071,Lincoln,RI,Peters River-Blackstone River,S,,,
WW415,Ninigret Pond - Western Basin,41.353184,-71.681183,Charlestown,RI,Ninigret Pond-Frontal Block Island Sound,D,,,
WW416,Pt Judith Pond - Champlin's Cove,41.406666,-71.491638,Narragansett,RI,Point Judith Pond-Frontal Block Island Sound,S,,,
WW417,Pt Judith Pond - Ram Point,41.425194,-71.496613,South Kingstown,RI,Point Judith Pond-Frontal Block Island Sound,D,,,
WW418,Quonochontaug Pond - Harmonic Cove Buoy,41.337334,-71.738197,Westerly,RI,Ninigret Pond-Frontal Block Island Sound,S,,,
WW419,Quonochontaug Pond - Harmonic Cove Channel,41.333752,-71.737358,Westerly,RI,Ninigret Pond-Frontal Block Island Sound,S,,,
WW420,Quonochontaug Pond - Judge's Rock Buoy,41.33429,-71.746251,Westerly,RI,Ninigret Pond-Frontal Block Island Sound,D,,,
WW421,Quonochontaug Pond - Mud Cove,41.330655,-71.751428,Westerly,RI,Ninigret Pond-Frontal Block Island Sound,S,,,
WW422,Quonochontaug Pond - Yacht Basin,41.329082,-71.749725,Westerly,RI,Ninigret Pond-Frontal Block Island Sound,S,,,
WW423,Saugatucket River - Caleb's Dock (just upstream of the dam at the corner of Main and High Streets),41.438831,-71.500168,South Kingstown,RI,Saugatucket River,S,,,
WW424,Watch Hill Harbor (Buoy 4),41.312602,-71.86169,Westerly,RI,Lower Pawcatuck River,S,,,
WW425,Napatree Point - Bayside,41.312021,-71.870112,Westerly,RI,Lower Pawcatuck River,S,,,
WW426,Napatree Point - Oceanside,41.305344,-71.879924,Westerly,RI,Southwest Coastal Waters-Frontal Block Island Sound,D,,,
WW427,HW1a - Scrabbletown Brk @ Falls,41.596448,-71.499287,North Kingstown,RI,Hunt River,S,,,
WW428,HW1b - Scrabbletown Brk @ Rte 4 Bridge,41.594584,-71.498784,North Kingstown,RI,Hunt River,S,,,
WW429,HW2 - Bear Brk @ South Rd. (Headwaters of Hunt River west of Routes 4 and 2),41.607754,-71.503741,East Greenwich,RI,Hunt River,S,,,
WW430,HW3 - Frenchtown Brk @ Frenchtown Rd.,41.626819,-71.497646,East Greenwich,RI,Hunt River,S,,,
WW431,"HW4 - Hunt River @ Davis Memorial (Refuge just upstream of Davisville Rd.) (East Greenwich, North Kingstown)",41.623713,-71.481805,East Greenwich,RI,Hunt River,S,,,
WW432,Pawtuxet River @ Ford Ln,41.755277,-71.439591,Warwick,RI,Pawtuxet River,S,,,
WW433,Pawtuxet River @ Ross Simon Dr,41.737451,-71.453753,Cranston,RI,Pawtuxet River,S,,,
WW434,Pocasset River @ CLCF Field (near confluence with Pawtuxet River near Marina Drive),41.75899,-71.442595,Cranston,RI,Pocassett River,S,,,
WW435,White Horn Brook @ Bike Trail,41.467204,-71.548941,South Kingstown,RI,Chipuxet River-Pawcatuck River,S,,,
WW436,Quonochontaug Pond - East Basin Yacht Club (salt pond),41.348194,-71.711807,Charlestown,RI,Ninigret Pond-Frontal Block Island Sound,S,,,
WW437,Woonasquatucket River @ Greystone Pond,41.866175,-71.492738,Johnston,RI,Woonasquatucket River,S,,,
WW438,Wesquage Outlet (Bonnet Pt Rd.) - Pondside. creek upstream of the culvert,41.47472,-71.425062,Narragansett,RI,Lower West Passage,S,,,
WW439,Wesquage Outlet (Bonnet Pt Rd.) - Oceanside,41.474449,-71.425098,Narragansett,RI,Lower West Passage,S,,,
WW440,Block Island Sound - Outside GSP breachway - North. GA14W,41.202976,-71.588695,New Shoreham,RI,Block Island,D,,,
WW441,Potter Pond - Kingman's Dock,41.386072,-71.531632,South Kingstown,RI,Point Judith Pond-Frontal Block Island Sound,S,,,
WW442,Pawcatuck River upstream of Westerly WWTP,41.364387,-71.837235,Westerly,RI,Lower Pawcatuck River,S,,,
WW443,Pawcatuck River downstream of Westerly WWTP,41.34987,-71.829899,Westerly,RI,Lower Pawcatuck River,S,,,
WW444,Pawcatuck River - Mouth,41.323415,-71.855493,Westerly,RI,Lower Pawcatuck River,D,,,
WW445,Little Narragansett Bay - North of Sandy Pt,41.323398,-71.8789,Westerly,RI,Lower Pawcatuck River,S,,,
WW446,Little Narragansett Bay - South of Barn Island Ramp,41.334101,-71.877743,Stonington,CT,Lower Pawcatuck River,S,,,
WW447,CUSH - Dodson's Boatyard,41.338029,-71.909146,Stonington,CT,Stony Brook-Frontal Fishers Island Sound,S,,,
WW448,CUSH - Lambert Cove East (Off Don's Dock),41.342857,-71.90947,Stonington,CT,Stony Brook-Frontal Fishers Island Sound,S,,,
WW449,CUSH - Wamphassuc Neck (Stonington Harbor West - Dock at 11 East Neck Rd),41.341183,-71.916115,Stonington,CT,Stony Brook-Frontal Fishers Island Sound,S,,,
WW450,CUSH - Stonington Harbor Mid (Off Town Dock),41.333321,-71.912643,Stonington,CT,Stony Brook-Frontal Fishers Island Sound,S,,,
WW451,CUSH - Wequetequock Cove (mouth),41.340248,-71.883545,Stonington,CT,Stony Brook-Frontal Fishers Island Sound,S,,,
WW452,CUSH - Sandy Point West (East of breakwater),41.325001,-71.896667,Stonington,CT,Stony Brook-Frontal Fishers Island Sound,S,,,
WW453,Trustom Pond - Otter Pt.,41.374314,-71.581227,South Kingstown,RI,Ninigret Pond-Frontal Block Island Sound,S,,,
WW454,Central Pond (Turner North),41.84776,-71.343163,East Providence,RI,Ten Mile River,S,,,
WW455,Block Island Sound - Outside GSP breachway - South. GA14W,41.200062,-71.598448,New Shoreham,RI,Block Island,D,,,
WW456,Wyassup Brook @ Clark Farms Rd.,41.454403,-71.82608,North Stonington,CT,Ashaway River,S,,,
WW457,Beaver River @ Richmond Schoolhouse Rd,41.479679,-71.623604,Richmond,RI,Beaver River,S,,,
WW458,Wesquage Pond (Little),41.476061,-71.429485,Narragansett,RI,Lower West Passage,S,,,
WW459,Trustom Pond - Osprey Pt,41.370769,-71.587548,South Kingstown,RI,Ninigret Pond-Frontal Block Island Sound,S,,,
WW460,Bullhead Pond,41.400184,-71.597254,South Kingstown,RI,Ninigret Pond-Frontal Block Island Sound,S,,,
WW461,Trout Brook Pond,41.989117,-71.582459,North Smithfield,RI,Branch River,S,,,
WW462,Bristol Harbor (1) - Elks Club,41.666606,-71.278219,Bristol,RI,Upper East Passage,S,,,
WW463,Bristol Harbor (2) - Bristol Harb Inn,41.67025,-71.279834,Bristol,RI,Upper East Passage,S,,,
WW464,Bristol Harbor (3) - Silver Creek,41.677058,-71.279036,Bristol,RI,Upper East Passage,S,,,
WW465,Bristol Harbor (4) - Windmill Pt,41.679628,-71.282618,Bristol,RI,Upper East Passage,S,,,
WW466,Bristol Harbor (5) - Mill Pond,41.681837,-71.283461,Bristol,RI,Upper East Passage,S,,,
WW467,Bristol Harbor (6) - Sanroma,41.680352,-71.288161,Bristol,RI,Upper East Passage,S,,,
WW468,Bristol Harbor (7) - Bristol Yacht Club,41.675519,-71.287674,Bristol,RI,Upper East Passage,S,,,
WW469,Bristol Harbor (8) - Brito Dock,41.671151,-71.28768,Bristol,RI,Upper East Passage,S,,,
WW470,CUSH - Wequetequock Cove - Head,41.357901,-71.879696,Stonington,CT,Stony Brook-Frontal Fishers Island Sound,S,,,
WW471,CUSH - Mason's Island Ram Pt,41.328552,-71.978386,Stonington,CT,Stony Brook-Frontal Fishers Island Sound,S,,,
WW472,CUSH - Murphy's Point,41.3484,-71.968559,Stonington,CT,Stony Brook-Frontal Fishers Island Sound,S,,,
WW473,CUSH - Mystic River Park,41.353296,-71.969383,Stonington,CT,Mystic River-Frontal Fishers Island Sound,S,,,
WW474,CUSH - Pequotsepos Cove - N of Rte 1,41.350041,-71.95912,Stonington,CT,Stony Brook-Frontal Fishers Island Sound,S,,,
WW475,Trustom Pond Tributary - East,41.37873,-71.583857,South Kingstown,RI,Ninigret Pond-Frontal Block Island Sound,S,,,
WW476,Trustom Pond Tributary - West,41.37346,-71.589446,South Kingstown,RI,Ninigret Pond-Frontal Block Island Sound,S,,,
WW477,Harmonic Brook (Quonochontaug Trib),41.338663,-71.738735,Westerly,RI,Ninigret Pond-Frontal Block Island Sound,S,,,
WW478,Winnapaug Pond - Cow Cove Creek,41.336253,-71.767187,Westerly,RI,Ninigret Pond-Frontal Block Island Sound,S,,,
WW479,Pawcatuck River - Upstream of Boom Bridge,41.418251,-71.822115,Westerly,RI,Lower Pawcatuck River,S,,,
WW480,Pawcatuck River - At Boom Bridge,41.417396,-71.823473,Westerly,RI,Lower Pawcatuck River,S,,,
WW481,Pawcatuck River - Downstream of Boom Bridge,41.417048,-71.823723,Westerly,RI,Lower Pawcatuck River,S,,,
WW482,Ten Mile River at Central Pond,41.862426,-71.33825,Pawtucket,RI,Ten Mile River,S,,,
WW483,Lake Aldersgate,41.878375,-71.663577,Glocester,RI,Moswansicut Pond-Huntinghouse Brook,S,,,
WW484,Harrisville Mill Pond,41.966379,-71.675089,Burrillville,RI,Clear River,S,,,
WW485,Bristol Harbor (9) - Silver Bridge,41.679712,-71.275947,Bristol,RI,Upper East Passage,S,,,
WW486,Bristol Harbor (10) - Silver East,41.686853,-71.271594,Bristol,RI,Upper East Passage,S,,,
WW487,Bristol Harbor (11) - Silver West,41.686246,-71.276377,Bristol,RI,Upper East Passage,S,,,
WW488,Bristol Harbor (12) - Herreshoff,41.662309,-71.27428,Bristol,RI,Upper East Passage,S,,,
WW489,Factory Brook (Green Hill Pond Trib),41.378348,-71.608447,South Kingstown,RI,Ninigret Pond-Frontal Block Island Sound,S,,,
WW490,Mill's Creek (Ninigret Pond Trib),41.381245,-71.643217,Charlestown,RI,Ninigret Pond-Frontal Block Island Sound,S,,,
WW491,Potter's Pond - North,41.395025,-71.539232,South Kingstown,RI,Point Judith Pond-Frontal Block Island Sound,S,,,
WW492,Winnapaug Pond - East Basin,41.332358,-71.780639,Westerly,RI,Ninigret Pond-Frontal Block Island Sound,S,,,
WW493,Pawtuxet River @ 250 m down from Warwick WWTP,41.739971,-71.448633,Warwick,RI,Pawtuxet River,S,,,
WW494,Napatree Point - Cove,41.315877,-71.856659,Westerly,RI,Lower Pawcatuck River,S,,,
WW495,CUSH - Pequotsepos MID Cove - Borodell Ave.,41.35211,-71.95657,Stonington,CT,Stony Brook-Frontal Fishers Island Sound,S,,,
WW496,Quicksand Pond Trib - Rock Bridge Creek (@ Quicksand Inlet),41.515091,-71.128962,Little Compton,RI,Sakonnet Point-Frontal Rhode Island Sound,S,,,
WW497,Fenway Beach,41.327937,-71.76125,Westerly,RI,op,S,,,
WW498,Green Falls River 3 (Clark Falls Rd./Rte 216),41.456135,-71.8174,North Stonington,CT,Ashaway River,S,,,
WW499,CUSH - Mystic Shipyard,41.34892,-71.9603,Stonington,CT,Mystic River-Frontal Fishers Island Sound,S,,,
WW500,Wickford Cove West of Loop Drive,41.565704,-71.457145,North Kingstown,RI,Lower West Passage,S,,,
WW501,CUSH - Chesebrough Pond,41.36134,-71.8743,Stonington,CT,Stony Brook-Frontal Fishers Island Sound,S,,,
WW502,CUSH - Wequetequock Cove Inlet,41.351033,-71.883884,Stonington,CT,Stony Brook-Frontal Fishers Island Sound,S,,,
WW503,Bristol Harbor (13) - Ed Mack's Dock,41.659763,-71.268856,Bristol,RI,Upper East Passage,S,,,
WW504,Pawtuxet River @ Rhodes,41.767197,-71.396012,Cranston,RI,Pawtuxet River,S,,,
WW505,Allen Cove - Inflow (Green Hill Pond trib),41.370986,-71.625745,Charlestown,RI,Ninigret Pond-Frontal Block Island Sound,S,,,
WW506,King Tom Pond Outflow (Ninigret Pond trib),41.381146,-71.652859,Charlestown,RI,Ninigret Pond-Frontal Block Island Sound,S,,,
WW507,Ninigret Cove Brook,41.345409,-71.729012,Charlestown,RI,Ninigret Pond-Frontal Block Island Sound,S,,,
WW508,Woonasquatucket River @ Manton Ave.,41.832995,-71.470563,Providence,RI,Woonasquatucket River,S,,,
WW509,Little Neck Pond,41.436338,-71.456227,Narragansett,RI,Pettaquamscutt River-Frontal Atlantic Ocean,S,,,
WW510,Great Salt Pond Trib. (Old Town Rd),41.172387,-71.564771,New Shoreham,RI,Block Island,S,,,
WW511,Great Salt Pond 5 (Champlin's North),41.185747,-71.582199,New Shoreham,RI,Block Island,S,,,
WW512,Potter's Pond - West,41.382572,-71.539184,South Kingstown,RI,Point Judith Pond-Frontal Block Island Sound,S,,,
WW513,Himes River @ 124 Hideaway Lane,41.557258,-71.49184,North Kingstown,RI,Lower West Passage,S,,,
WW514,Bobby's Pond,,,Portsmouth,RI,,S,,,
WW515,Wickford Cove East of Loop Drive,41.567219,-71.453854,North Kingstown,RI,Lower West Passage,S,,,
WW516,Billington Cove Marina,41.421609,-71.503292,South Kingstown,RI,Point Judith Pond-Frontal Block Island Sound,S,,,
WW517,Great Salt Pond Trib. (Breezy Pt Culvert),41.1903,-71.57053,New Shoreham,RI,Block Island,S,,,
WW518,Waterman Tributary Upstream of Golf Course,41.887282,-71.591147,Glocester,RI,Woonasquatucket River,S,,,
WW519,Saw Mill Pond,41.612866,-71.46572,North Kingstown,RI,Hunt River,S,,,
WW520,Bonnet Point,41.468415,-71.421502,Narragansett,RI,Lower West Passage,S,,,
WW521,Bristol Harbor (14) - DaPonte/Wood St,41.682495,-71.274506,Bristol,RI,Upper East Passage,S,,,
WW522,Bristol Harbor (15) - Silver Gooding Ave,41.694033,-71.267564,Bristol,RI,Upper East Passage,S,,,
WW523,Cross Mill Pond,41.387015,-71.635887,Charlestown,RI,Ninigret Pond-Frontal Block Island Sound,S,,,
WW524,Sawpowet Marsh 1,41.578802,-71.199293,Tiverton,RI,Sakonnet River,S,,,
WW525,Sawpowet Marsh 2,41.581776,-71.20835,Tiverton,RI,Sakonnet River,S,,,
WW526,CUSH - Pequotsepos Railroad,41.349414,-71.960363,Stonington,CT,Stony Brook-Frontal Fishers Island Sound,S,,,
WW527,CUSH - Pequotsepos Brook (at Mistuxet Ave.),41.358267,-71.953356,Stonington,CT,Stony Brook-Frontal Fishers Island Sound,S,,,
WW528,CUSH - Beebe Cove (private dock off Rte 215),41.334932,-71.9914,Stonington,CT,Stony Brook-Frontal Fishers Island Sound,S,,,
WW529,Roosevelt Pond inflow (RWP 1),41.782905,-71.418426,Providence,RI,Pawtuxet River,S,,,
WW530,Willow Lake (RWP 2),41.78389,-71.414393,Providence,RI,Pawtuxet River,S,,,
WW531,Polo Lake (RWP 3),41.786347,-71.414957,Providence,RI,Pawtuxet River,S,,,
WW532,Willow/Pleasure Bridge (RWP 4),41.784091,-71.41387,Providence,RI,Pawtuxet River,S,,,
WW533,Cladrash's Ave Bridge (RWP 5),41.784872,-71.406646,Providence,RI,Pawtuxet River,S,,,
WW534,Edgewood Lake (RWP 6),41.781046,-71.406029,Providence,RI,Pawtuxet River,D,,,
WW535,Elm Lake Outflow (RWP 9),41.773803,-71.412422,Providence,RI,Pawtuxet River,S,,,
WW536,Spring Green Pond at Warwick Ave.,41.735307,-71.407924,Warwick,RI,Upper Narragansett Bay,S,,,
WW537,Buckeye Brook @ Airport Rd,41.732846,-71.416661,Warwick,RI,Upper Narragansett Bay,S,,,
WW538,Buckeye Brook @ Lakeshore Dr (culvert),41.728497,-71.414397,Warwick,RI,Upper Narragansett Bay,S,,,
WW539,Old Catch Basin (Buckeye Brk system),41.722817,-71.41492,Warwick,RI,Upper Narragansett Bay,S,,,
WW540,Buckeye Brook @ the Bay,41.713541,-71.365097,Warwick,RI,Upper Narragansett Bay,S,,,
WW541,Sawpowet Trib 1,41.575442,-71.197924,Tiverton,RI,Sakonnet River,S,,,
WW542,Sawpowet Trib 2,41.575071,-71.198957,Tiverton,RI,Sakonnet River,S,,,
WW543,Pendleton Hill Brook @ Rte 49/216,41.455281,-71.836298,North Stonington,CT,Ashaway River,S,,,
WW544,Pasquisett Pond (Ferrio Dock),41.42397,-71.632568,Charlestown,RI,Usquepaug River-Pawcatuck River,S,,,
WW545,Long Pond (LC),41.465106,-71.17896,Little Compton,RI,Sakonnet Point-Frontal Rhode Island Sound,S,,,
WW546,Peace Dale Reservoir,41.45146,-71.512619,South Kingstown,RI,Saugatucket River,S,,,
WW547,Shunock River @ Rte 184,41.43047,-71.851959,North Stonington,CT,Shunock River,S,,,
WW548,Blue Pond,41.50767,-71.748532,Hopkinton,RI,Lower Wood River,S,,,
WW549,Wood River @ Mechanic St Dam,41.503116,-71.716554,Richmond,RI,Lower Wood River,S,,,
WW550,Pasquisett Tributary - Southwest,41.42189,-71.634865,Charlestown,RI,Usquepaug River-Pawcatuck River,S,,,
WW551,Pasquisett Tributary - Southeast,41.421223,-71.629219,Charlestown,RI,Usquepaug River-Pawcatuck River,S,,,
WW552,Echo Lake (Barrington),41.735171,-71.334142,Barrington,RI,Seekonk River-Providence River,S,,,
WW553,Knowles Brook,41.702431,-71.387213,Warwick,RI,Upper Narragansett Bay,S,,,
WW554,Borden Brook,41.571963,-71.183476,Tiverton,RI,Sakonnet River,S,,,
WW555,Bristol Harbor (16) - Roger Williams University Dock,41.649644,-71.256072,Bristol,RI,Mount Hope Bay,S,,,
WW556,Bristol Harbor (18) - Annawanscutt Drive,41.688037,-71.242357,Bristol,RI,Mount Hope Bay,S,,,
WW557,Bristol Harbor (17) - Kickemuit,41.704403,-71.249924,Bristol,RI,Mount Hope Bay,S,,,
WW558,Narrow River 17 - Mettatuxet Road,41.474922,-71.442446,Narragansett,RI,Pettaquamscutt River-Frontal Atlantic Ocean,S,,,
WW559,Narrow River 18 - SE Middlebridge,41.457803,-71.450602,Narragansett,RI,Pettaquamscutt River-Frontal Atlantic Ocean,S,,,
WW560,Narrow River 19 - NE Middlebridge,41.457982,-71.450552,Narragansett,RI,Pettaquamscutt River-Frontal Atlantic Ocean,S,,,
WW561,Narrow River 21 - SW Middlebridge,41.457901,-71.451217,Narragansett,RI,Pettaquamscutt River-Frontal Atlantic Ocean,S,,,
WW562,Narrow River 22 - mid Middlebridge,41.458333,-71.4525,Narragansett,RI,Pettaquamscutt River-Frontal Atlantic Ocean,S,,,
WW563,Narrow River 23 - Garrison Trail,41.454722,-71.455278,South Kingstown,RI,Pettaquamscutt River-Frontal Atlantic Ocean,S,,,
WW564,Narrow River 24 - Starr Drive,41.444167,-71.455556,Narragansett,RI,Pettaquamscutt River-Frontal Atlantic Ocean,S,,,
WW565,Narrow River 25 - Crooked Brook,41.438025,-71.467141,Narragansett,RI,Pettaquamscutt River-Frontal Atlantic Ocean,S,,,
WW566,Narrow River 26 - Kimberly Drive,41.441785,-71.470243,South Kingstown,RI,Pettaquamscutt River-Frontal Atlantic Ocean,S,,,
WW567,Narrow River 27 - Bike Path Culvert,41.437222,-71.475833,Narragansett,RI,Pettaquamscutt River-Frontal Atlantic Ocean,S,,,
WW568,CUSH - Whitford Brook,41.389709,-71.960412,Stonington,CT,Mystic River-Frontal Fishers Island Sound,S,,,
WW569,Napatree Point - Lagoon,41.309283,-71.880407,Westerly,RI,Lower Pawcatuck River,S,,,
WW570,Trustom Pond - Site 1,41.376225,-71.582442,South Kingstown,RI,Ninigret Pond-Frontal Block Island Sound,S,,,
WW571,Trustom Pond - Site 2,41.372648,-71.577536,South Kingstown,RI,Ninigret Pond-Frontal Block Island Sound,S,,,
WW572,Trustom Pond - Site 3,41.370054,-71.581578,South Kingstown,RI,Ninigret Pond-Frontal Block Island Sound,S,,,
WW573,Almy Creek,41.552058,-71.197741,Tiverton,RI,Sakonnet River,S,,,
WW574,Nanaquaket Pond @ Evelyn's,41.616022,-71.200609,Tiverton,RI,Sakonnet River,S,,,
WW575,Fogland Beach,41.558551,-71.214713,Tiverton,RI,Sakonnet River,S,,,
WW576,Quonochontaug Pond - Yacht Basin Buoy,41.330216,-71.74804,Westerly,RI,Ninigret Pond-Frontal Block Island Sound,S,,,
WW577,Whaley Brook at Flat River,41.716853,-71.662208,Coventry,RI,Headwaters South Branch Pawtuxet River,S,,,
WW578,Turkey Meadow Brook at Flat River,41.727907,-71.708924,Foster,RI,Headwaters South Branch Pawtuxet River,S,,,
WW579,CUSH - Noank Village Boatyard,41.329054,-71.983513,Groton,CT,Stony Brook-Frontal Fishers Island Sound,S,,,
WW580,Saw Mill Pond,41.431376,-71.662063,Charlestown,RI,Tomaquag Brook-Pawcatuck River,S,,,
WW581,Tongue Pond,41.797937,-71.442614,Cranston,RI,Pawtuxet River,S,,,
WW582,Tunipus Pond,41.495285,-71.13789,Little Compton,RI,Sakonnet Point-Frontal Rhode Island Sound,S,,,
WW583,Perry Pond,41.382159,-71.631569,Charlestown,RI,Ninigret Pond-Frontal Block Island Sound,S,,,
WW584,Jack's Island,41.594136,-71.20634,Tiverton,RI,Sakonnet River,S,,,
WW585,Moswansicut @ Snake Hill Road,41.864989,-71.58959,Scituate,RI,Moswansicut Pond-Huntinghouse Brook,S,,,
WW586,Moswansicut @ Elmsdale Road,41.861892,-71.587183,Scituate,RI,Moswansicut Pond-Huntinghouse Brook,S,,,
WW587,Moswansicut @ Angell Road,41.854144,-71.575482,Scituate,RI,Moswansicut Pond-Huntinghouse Brook,S,,,
WW588,Moswansicut @ Kimball Outflow,41.838155,-71.568159,Scituate,RI,Moswansicut Pond-Huntinghouse Brook,S,,,
WW589,Moswansicut @ Hopkins Ave,41.838833, -71.5682342,Scituate,RI,Moswansicut Pond-Huntinghouse Brook,S,,,
WW590,Moswansicut @ Tasca Field,41.83546,-71.572755,Scituate,RI,Moswansicut Pond-Huntinghouse Brook,S,,,
WW591,Moswansicut @ Hartford Ave,41.836078,-71.577291,Scituate,RI,Moswansicut Pond-Huntinghouse Brook,S,,,
WW592,Moswansicut @ W. Greenville Rd,41.840838,-71.582669,Scituate,RI,Moswansicut Pond-Huntinghouse Brook,S,,,
WW593,Maidford River - Culvert at Third Beach Rd,41.490427,-71.248765,Middletown,RI,Sakonnet River,S,,,
WW594,Maidford Marsh - Water control structure,41.48525,-71.243766,Middletown,RI,Sakonnet River,S,,,
WW595,Maskerchugg Tributary @ Green Bush Rd.,41.662816,-71.47981,East Greenwich,RI,Greenwich Bay,S,,,
WW596,Maskerchugg River @ Cedar & Division,41.663289,-71.472236,East Greenwich,RI,Greenwich Bay,S,,,
WW597,Dark Entry Brook @ Brisas Circle,41.659867,-71.462677,East Greenwich,RI,Greenwich Bay,S,,,
WW598,Maskerchugg River @ Kenyon,41.655132,-71.463918,East Greenwich,RI,Greenwich Bay,S,,,
WW599,Maskerchugg Tributary @ Glenwood Cemetary,41.655031,-71.464399,East Greenwich,RI,Greenwich Bay,S,,,
WW600,Maskerchugg Tributary @ Saddle Brook,41.667092,-71.48372,Warwick,RI,Greenwich Bay,S,,,
WW601,Maskerchugg River @ Rt 95,41.673278,-71.477632,Warwick,RI,Greenwich Bay,S,,,
WW602,Dark Entry Brook @ Major Potter,41.673162,-71.468397,Warwick,RI,Greenwich Bay,S,,,
WW603,Maskerchugg Tributary @ Hemlock,41.653235,-71.469831,East Greenwich,RI,Greenwich Bay,S,,,
WW604,Maskerchugg River @ Greenwich Cove,41.647603,-71.455941,East Greenwich,RI,Greenwich Bay,S,,,
WW605,Maidford River - Hanging Rock Rd,41.490386,-71.259375,Middletown,RI,Sakonnet River,S,,,
WW606,Warren River - Bridge Street Access,41.72095,-71.285204,Warren,RI,Barrington and Warren Rivers,S,,,
WW607,Warren River - Wharf Tavern ROW,41.731135,-71.286693,Warren,RI,Barrington and Warren Rivers,S,,,
WW608,Warren River - Jacobs Pt,41.708944,-71.291396,Warren,RI,Barrington and Warren Rivers,S,,,
WW609,Belchers Cove - German Club,41.737126,-71.283853,Warren,RI,Palmer River,S,,,
WW610,Warren River - Adams Pt,41.717845,-71.29161,Barrington,RI,Barrington and Warren Rivers,S,,,
WW611,Sin and Flesh Brook - Fish Rd,41.629549,-71.186662,Tiverton,RI,Sakonnet River,S,,,
WW612,Sin and Flesh Brook - April Lane,41.622128,-71.201471,Tiverton,RI,Sakonnet River,S,,,
WW613,Nanaquaket Beach,41.618137,-71.206054,Tiverton,RI,Sakonnet River,S,,,
WW614,Quaket Creek - Main Rd,41.59832,-71.194774,Tiverton,RI,Sakonnet River,S,,,
WW615,Penny Pond,41.596928,-71.196095,Tiverton,RI,Sakonnet River,S,,,
WW616,Borden Brook - Main Rd,41.569338,-71.186992,Tiverton,RI,Sakonnet River,S,,,
WW617,Pasquisett Brook @ Rte 2,41.444004,-71.626934,Charlestown,RI,Usquepaug River-Pawcatuck River,S,,,
WW618,Pendelton Hill Brook @ Grindstone Rd,41.474931,-71.834016,North Stonington,CT,Ashaway River,S,,,
WW619,Wickford Harbor - Brown St Dock,41.570067,-71.451072,North Kingstown,RI,Lower West Passage,S,,,
WW620,Wickford Harbor - Main St Dock,41.572931,-71.444979,North Kingstown,RI,Lower West Passage,S,,,
WW621,Sin and Flesh Brook - Rte 24,41.640372,-71.187622,Tiverton,RI,Sakonnet River,S,,,
WW622,Third Beach Boat Ramp,41.48715,-71.246084,Middletown,RI,Sakonnet River,S,,,
WW623,Briggs Marsh Dundery Brook Cove,41.484225,-71.166842,Little Compton,RI,Sakonnet Point-Frontal Rhode Island Sound,S,,,
WW624,CUSH - Oxecosset Brook,41.351377,-71.891214,Stonington,CT,Stony Brook-Frontal Fishers Island Sound,S,,,
WW625,Buckeye Brook @ Rodney Rd,41.71302,-71.41115,Warwick,RI,Upper Narragansett Bay,S,,,
WW626,CUSH - Mystic Harbor (Red Bouy 24),41.333017,-71.9742,Stonington,CT,Mystic River-Frontal Fishers Island Sound,D,,,
WW627,CUSH - Mystic Harbor (Green Bouy 29),41.340183,-71.9742,Stonington,CT,Mystic River-Frontal Fishers Island Sound,D,,,
WW628,CUSH - Mystic Harbor (Red Daybeacon 4),41.3418,-71.9682,Stonington,CT,Mystic River-Frontal Fishers Island Sound,D,,,
WW629,CUSH - Mystic Seaport South (Shipyard Pt floating dock W end),41.361418,-71.967039,Stonington,CT,Mystic River-Frontal Fishers Island Sound,S,,,
WW630,CUSH - Mystic Seaport North (Latitude 41 floating dock N corner),41.364146,-71.964335,Stonington,CT,Mystic River-Frontal Fishers Island Sound,S,,,
WW631,Green Hill Pond - Sea Lea,41.367909,-71.622364,Charlestown,RI,Ninigret Pond-Frontal Block Island Sound,S,,,
WW632,Ninigret Pond - Eastern Basin,41.368165,-71.630045,Charlestown,RI,Ninigret Pond-Frontal Block Island Sound,S,,,
WW633,Spring Green Pond Outflow,41.734561,-71.417113,Warwick,RI,Upper Narragansett Bay,S,,,
WW634,Buckeye Trib - Commerce,41.734492,-71.417434,Warwick,RI,Upper Narragansett Bay,S,,,
WW635,Woonasquatucket River @ Whipple Field,41.883749,-71.504435,Smithfield,RI,Woonasquatucket River,S,,,
WW636,Moshassuck River @ Sheridan Nature Sanctuary,41.917286,-71.447367,Lincoln,RI,Moshassuck River,S,,,
WW637,Quaket Creek - Below pond,41.60052,-71.197174,Tiverton,RI,Sakonnet River,S,,,
WW638,Industrial Way tributary to Sin and Flesh,41.640976,-71.184393,Tiverton,RI,Sakonnet River,S,,,
WW639,Tiverton Basin boat launch,41.638012,-71.211667,Tiverton,RI,Sakonnet River,S,,,
WW640,Tributary Borden from south,41.571349,-71.184498,Tiverton,RI,Sakonnet River,S,,,
WW641,Tributary Borden from east,41.571788,-71.18506,Tiverton,RI,Sakonnet River,S,,,
WW642,West River,41.855322,-71.430448,Providence,RI,Moshassuck River,S,,,
WW643,Moshassuck River @ Collyer Field FOTM tree field,41.854327,-71.404502,Providence,RI,Moshassuck River,S,,,
WW644,Warren River - Ginalski Boat Yard,41.732244,-71.287527,Warren,RI,Barrington and Warren Rivers,S,,,
WW645,Pawcatuck River @ Mastuxet Brook,41.343056,-71.824406,Westerly,RI,Lower Pawcatuck River,S,,,
WW646,Flat River @ Midway,41.573082,-71.720956,Exeter,RI,Upper Wood River,S,,,
WW647,Ten Mile River - Upstream of Omega Pond,41.834695,-71.362111,East Providence,RI,Ten Mile River,S,,,
WW648,Posnegansett Pond,41.74957,-71.405885,Warwick,RI,Upper Narragansett Bay,D,,,
WW649,Ten Mile River - Hunt's Mill,41.828073,-71.345581,East Providence,RI,Ten Mile River,S,,,
WW650,Buckeye Trib - Upstream of airport channel,41.729211,-71.414904,Warwick,RI,Upper Narragansett Bay,S,,,
WW651,Buckeye Trib - Airport channel,41.729004,-71.414788,Warwick,RI,Upper Narragansett Bay,S,,,
WW652,Narrow River 28 - Power Line Path,41.43783,-71.476662,Narragansett,RI,Pettaquamscutt River-Frontal Atlantic Ocean,S,,,
WW653,Warwick Cove,41.6345,-71.391167,Warwick,RI,Greenwich Bay,D,,,
WW654,Greenwich Cove,41.667533,-71.4435,East Greenwich,Ri,Greenwich Bay,S,,,
WW655,Providence River - Save The Bay,41.781333,-71.3855,Cranston,RI,Upper Narragansett Bay,D,,,
WW656,Maschaug Pond,41.317788,-71.833527,Westerly,RI,Southwest Coastal Waters,S,,,
WW657,Potter Pond - Segar Cove,41.381173,-71.54013,South Kingstown,RI,Point Judith Pond-Frontal Block Island Sound,S,,,
WW658,Wickford Cove West of Loop Drive (further),41.564327,-71.458107,North Kingstown,RI,Lower West Passage,S,,,
WW659,Maskerchugg River @ Rt 1,41.650018,-71.457438,East Greenwich,RI,Greenwich Bay,S,,,
WW660,Mackeral Cove Beach,41.488844,-71.382202,Jamestown,RI,Lower East Passage,S,,,
WW661,Pt Judith Pond - Long Cove,41.417218,-71.493717,Narragansett,RI,Point Judith Pond-Frontal Block Island Sound,S,,,
WW662,Bristol Golf Club - North,41.704709,-71.272273,Bristol,RI,Upper East Passage,S,,,
WW663,Bristol Golf Club - B,41.696408,-71.268258,Bristol,RI,Upper East Passage,S,,,
WW664,Hay Harbor Club,41.26666,-72.022824,Fishers Island,NY,Stony Brook-Frontal Fishers Island Sound,S,,,
WW665,West Harbor,41.265622,-72.011013,Fishers Island,NY,Stony Brook-Frontal Fishers Island Sound,S,,,
WW666,Fisherville Trib - Hopkins Upstream,41.613359,-71.570405,West Greenwich,RI,Upper Wood River,S,,,
WW667,Fisherville Brook - Henry Brown Rd,41.609585,-71.589963,West Greenwich,RI,Upper Wood River,S,,,
WW668,Wickford Harbor - Fishing Cove,41.581905,-71.442508,North Kingstown,RI,Lower West Passage,S,,,
WW669,Lucy Brook,41.898436,-71.669729,Glocester,RI,Chepachet River,S,,,
WW670,Block Island Mooring (Blue 133),41.185627,-71.579845,New Shoreham,RI,Block Island,S,,,
WW671,Thirty Acre Pond,41.491252,-71.545342,South Kingstown,RI,Chipuxet River-Pawcatuck River,S,,,
WW672,Fisherville Trib - Hopkins Downstream,41.613361,-71.570417,West Greenwich,RI,Upper Wood River,S,,,
WW673,Snows Pond,41.758408,-70.852288,Rochester,MA,Mattapoisett River,D,,,
WW674,Roosevelt Lake Outflow,41.784692,-71.415435,Providence,RI,Pawtuxet River,S,,,
WW675,Cladrash's Pedestrian Bridge,41.784221,-71.411275,Providence,RI,Pawtuxet River,S,,,
WW676,Little Wash Pond,41.401975,-71.54524,South Kingstown,RI,Point Judith Pond-Frontal Block Island Sound,D,,,
WW677,Snow's Pond - Cranberry Cove,41.75541,-70.855017,Rochester,MA,Mattapoisett River,D,,,
WW678,Moosup River - Barb Hill Rd,41.720103,-71.757768,Coventry,RI,Upper Moosup River,S,,,
WW679,Geov Trib – Sweet Rd,41.890414,-71.514129,Smithfield,RI,Woonasquatucket River,S,,,
WW680,Geoville Trib @ Below Harris,41.894566,-71.507241,Smithfield,RI,Woonasquatucket River,S,,,
WW681,Upper Kickemuit Impoundment,41.740022,-71.259677,Warren,RI,Mount Hope Bay,S,,,
WW682,Lower Kickemuit Reservoir,41.729401,-71.264349,Warren,RI,Mount Hope Bay,S,,,
WW683,Kickemuit Estuary,41.729514,-71.262654,Warren,RI,Mount Hope Bay,S,,,
WW684,Zeek's Creek,41.506919,-71.374663,Jamestown,RI,Lower West Passage,S,,,
WW685,South Ferry Beach Rd Beach,41.492807,-71.420157,Narragansett,RI,Lower West Passage,S,,,
WW686,Narrow River 05b - Upstream of Lacey Bridge (South Kingstown/Narragansett),41.488563,-71.447328,South Kingstown,RI,Pettaquamscutt River-Frontal Atlantic Ocean,S,,,
WW687,Mashapaug Inlet,,,Providence,RI,Pawtuxet River,S,,,
WW688,Fox Hill Marsh,41.49171,-71.395902,Jamestown,RI,Lower West Passage,S,,,
WW689,Simmons Brook,41.79648,-71.483332,Johnston,RI,Pocassett River,S,,,
WW690,Touisset Yacht,41.700887,-71.242492,Warren,RI,Mount Hope Bay,S,,,
WW691,Broken Bridge,41.726154,-71.263118,Warren,RI,Mount Hope Bay,S,,,
WW692,Meshanticut Brook,41.774125,-71.475603,Cranston,RI,Pawtuxet River,S,,,
WW693,Amaral-D'Ambra Urban Estuary,41.80231,-71.376888,East Providence,RI,Upper Narragansett Bay,S,,,
WW694,Almy Pond - Site 2,41.460743,-71.312239,Newport,RI,Aquidneck Island-Frontal Atlantic Ocean,S,,,
WW695,Almy Pond - Inlet,41.465522,-71.311602,Newport,RI,Aquidneck Island-Frontal Atlantic Ocean,S,,,
WW696,Almy Pond - Outlet,41.458999,-71.314023,Newport,RI,Aquidneck Island-Frontal Atlantic Ocean,S,,,
WW697,K's NA-38,41.369171,-71.495903,Narragansett,RI,Point Judith Pond-Frontal Block Island Sound,S,,,
WW698,K's Pond,41.366394,-71.49203,Narragansett,RI,Point Judith Pond-Frontal Block Island Sound,S,,,
WW699,Conant NA-49,41.369301,-71.483719,Narragansett,RI,Point Judith Pond-Frontal Block Island Sound,S,,,
WW700,Conant Pond,41.371873,-71.48426,Narragansett,RI,Point Judith Pond-Frontal Block Island Sound,S,,,
WW701,Green Hill Beach,41.364559,-71.600061,Charlestown,RI,Point Judith Pond-Frontal Block Island Sound,S,,,
WW702,Moshassuck River @ Mineral Spring,41.87245,-71.40834,Providence,RI,Moshassuck River,S,,,
WW703,Smith & Sayles @ Cleo/Trib to S &S,41.885577,-71.687185,Glocester,RI,Chepachet River,S,,,
WW704,Mastuxet Brook,41.344694,-71.818737,Westerly,RI,Lower Pawcatuck River,S,,,
WW705,Pt Judith Pond - East 2,,,Narragansett,RI,Point Judith Pond-Frontal Block Island Sound,S,,,
WW706,Polo Lake (RWP 3A),41.787353,-71.415286,Providence,RI,Pawtuxet River,S,,,
WW707,Polo Lake (RWP 3B),41.786609,-71.415248,Providence,RI,Pawtuxet River,S,,,
WW708,Polo Lake (RWP 3C),41.786734,-71.416041,Providence,RI,Pawtuxet River,S,,,
WW709,Stillwater Reservoir Inlet,41.899268,-71.546202,Smithfield,RI,Woonasquatucket River,S,,,
WW710,Wesquage Inlet - Lake Road,41.479962,-71.428181,Narragansett,RI,Lower West Passage,S,,,
WW711,Wesquage Culvert (NA-62),41.479317,-71.429398,Narragansett,RI,Lower West Passage,S,,,
WW712,Sapowet Marsh - 3,41.5808,-71.20671,Tiverton,RI,Sakonnet River,S,,,
WW713,Kickemuit River @ Shore Drive,41.708368,-71.2417,Warren,RI,Mount Hope Bay,S,,,
